[{"OBJECT_NAME":"STARLINK-32182","OBJECT_ID":"2024-133U","EPOCH":"2026-03-09T01:24:00.721152","MEAN_MOTION":15.30193796,"ECCENTRICITY":0.000108,"INCLINATION":53.16,"RA_OF_ASC_NODE":299.9979,"ARG_OF_PERICENTER":85.6382,"MEAN_ANOMALY":274.4742,"EPHEMERIS_TYPE":0,"CLASSIFICATION_TYPE":"U","NORAD_CAT_ID":60319,"ELEMENT_SET_NO":999,"REV_AT_EPOCH":9154,"BSTAR":2.0727103e-5,"MEAN_MOTION_DOT":2.55e-6,"MEAN_MOTION_DDOT":0},{"OBJECT_NAME":"COSMOS 2251 DEB","OBJECT_ID":"1993-036BPR","EPOCH":"2026-02-24T07:57:21.236256","MEAN_MOTION":15.23776337,"ECCENTRICITY":0.00166824,"INCLINATION":73.9787,"RA_OF_ASC_NODE":76.2838,"ARG_OF_PERICENTER":284.1156,"MEAN_ANOMALY":75.8189,"EPHEMERIS_TYPE":0,"CLASSIFICATION_TYPE":"U","NORAD_CAT_ID":37966,"ELEMENT_SET_NO":999,"REV_AT_EPOCH":86459,"BSTAR":0.0031189174,"MEAN_MOTION_DOT":0.00076101,"MEAN_MOTION_DDOT":0}]
